[{"OBJECT_NAME":"QIANFAN-34","OBJECT_ID":"2024-185R","EPOCH":"2026-03-09T23:48:13.151232","MEAN_MOTION":14.02387814,"ECCENTRICITY":0.00081871,"INCLINATION":88.9718,"RA_OF_ASC_NODE":68.5076,"ARG_OF_PERICENTER":66.0949,"MEAN_ANOMALY":294.1088,"EPHEMERIS_TYPE":0,"CLASSIFICATION_TYPE":"U","NORAD_CAT_ID":61567,"ELEMENT_SET_NO":999,"REV_AT_EPOCH":8158,"BSTAR":0.00037025397,"MEAN_MOTION_DOT":5.82e-6,"MEAN_MOTION_DDOT":0},{"OBJECT_NAME":"NOAA 16 DEB","OBJECT_ID":"2000-055DE","EPOCH":"2026-03-09T22:17:51.316224","MEAN_MOTION":14.12997825,"ECCENTRICITY":0.00416693,"INCLINATION":98.7635,"RA_OF_ASC_NODE":108.3399,"ARG_OF_PERICENTER":246.0991,"MEAN_ANOMALY":113.5814,"EPHEMERIS_TYPE":0,"CLASSIFICATION_TYPE":"U","NORAD_CAT_ID":41201,"ELEMENT_SET_NO":999,"REV_AT_EPOCH":52600,"BSTAR":0.0013835548,"MEAN_MOTION_DOT":2.558e-5,"MEAN_MOTION_DDOT":0}]
